ONEWEB-0233             
1 48795U 21045AE  25154.48149795  .00000114  00000+0  26984-3 0  9996
2 48795  87.9045 334.7349 0001892 104.1778 255.9562 13.15547697194500
ONEWEB-0190             
1 48796U 21045AF  25155.00136280 -.00000028  00000+0 -10827-3 0  9996
2 48796  87.9045 334.5953 0001790 119.5188 240.6121 13.15547266195765
ONEWEB-0236             
1 48797U 21045AG  25155.01880102  .00000164  00000+0  40255-3 0  9994
2 48797  87.9050 334.5990 0001890  96.3640 263.7706 13.15549374195654
ONEWEB-0248             
1 48798U 21045AH  25154.57512433  .00000155  00000+0  37695-3 0  9998
2 48798  87.9042 334.6471 0002198 109.6224 250.5144 13.15550162195757
ONEWEB-0225             
1 48799U 21045AJ  25155.20575870 -.00000028  00000+0 -10723-3 0  9998
2 48799  87.9047 334.5503 0001773 114.3639 245.7676 13.15550603195867
ONEWEB-0215             
1 48800U 21045AK  25154.87143789  .00000158  00000+0  38662-3 0  9997
2 48800  87.9041 334.5709 0002024 114.7863 245.3478 13.15549423195678
ONEWEB-0216             
1 48801U 21045AL  25154.50064730  .00000075  00000+0  16408-3 0  9998
2 48801  87.9042 334.6901 0001584  92.5741 267.5570 13.15547131194518
ONEWEB-0239             
1 48802U 21045AM  25154.50539949  .00000052  00000+0  10437-3 0  9999
2 48802  87.9052 334.6958 0002296 113.1121 247.0251 13.15550594194555
